{"fetchedAt":"2026-06-29T18:07:57.254Z","satellites":[{"id":"42939","name":"COSMOS 2522 (752)","constellationId":"glo","omm":{"OBJECT_NAME":"COSMOS 2522 (752)","OBJECT_ID":"2017-055A","EPOCH":"2026-06-24T03:53:00.968064","MEAN_MOTION":2.13101107,"ECCENTRICITY":0.00084097,"INCLINATION":64.0776,"RA_OF_ASC_NODE":191.6387,"ARG_OF_PERICENTER":235.5259,"MEAN_ANOMALY":124.4452,"EPHEMERIS_TYPE":0,"CLASSIFICATION_TYPE":"U","NORAD_CAT_ID":42939,"ELEMENT_SET_NO":999,"REV_AT_EPOCH":6812,"BSTAR":0,"MEAN_MOTION_DOT":0.00000104,"MEAN_MOTION_DDOT":0}},{"id":"43508","name":"COSMOS 2527 (756)","constellationId":"glo","omm":{"OBJECT_NAME":"COSMOS 2527 (756)","OBJECT_ID":"2018-053A","EPOCH":"2026-06-27T21:03:54.996768","MEAN_MOTION":2.13102103,"ECCENTRICITY":0.0006813,"INCLINATION":65.5836,"RA_OF_ASC_NODE":73.5506,"ARG_OF_PERICENTER":236.4648,"MEAN_ANOMALY":123.515,"EPHEMERIS_TYPE":0,"CLASSIFICATION_TYPE":"U","NORAD_CAT_ID":43508,"ELEMENT_SET_NO":999,"REV_AT_EPOCH":6250,"BSTAR":0,"MEAN_MOTION_DOT":-4.5e-7,"MEAN_MOTION_DDOT":0}},{"id":"43687","name":"COSMOS 2529 (757)","constellationId":"glo","omm":{"OBJECT_NAME":"COSMOS 2529 (757)","OBJECT_ID":"2018-086A","EPOCH":"2026-06-29T09:09:54.697248","MEAN_MOTION":2.13102097,"ECCENTRICITY":0.0012123,"INCLINATION":64.2959,"RA_OF_ASC_NODE":192.1827,"ARG_OF_PERICENTER":256.5039,"MEAN_ANOMALY":103.4062,"EPHEMERIS_TYPE":0,"CLASSIFICATION_TYPE":"U","NORAD_CAT_ID":43687,"ELEMENT_SET_NO":999,"REV_AT_EPOCH":5954,"BSTAR":0,"MEAN_MOTION_DOT":8.6e-7,"MEAN_MOTION_DDOT":0}},{"id":"44299","name":"COSMOS 2534 (758)","constellationId":"glo","omm":{"OBJECT_NAME":"COSMOS 2534 (758)","OBJECT_ID":"2019-030A","EPOCH":"2026-06-27T07:48:11.380608","MEAN_MOTION":2.13102451,"ECCENTRICITY":0.00135629,"INCLINATION":64.3693,"RA_OF_ASC_NODE":192.2752,"ARG_OF_PERICENTER":275.0761,"MEAN_ANOMALY":81.5437,"EPHEMERIS_TYPE":0,"CLASSIFICATION_TYPE":"U","NORAD_CAT_ID":44299,"ELEMENT_SET_NO":999,"REV_AT_EPOCH":5513,"BSTAR":0,"MEAN_MOTION_DOT":0.000001,"MEAN_MOTION_DDOT":0}},{"id":"44850","name":"COSMOS 2544 (759)","constellationId":"glo","omm":{"OBJECT_NAME":"COSMOS 2544 (759)","OBJECT_ID":"2019-088A","EPOCH":"2026-06-25T22:41:15.294624","MEAN_MOTION":2.13102928,"ECCENTRICITY":0.00129231,"INCLINATION":65.5707,"RA_OF_ASC_NODE":73.4383,"ARG_OF_PERICENTER":257.6247,"MEAN_ANOMALY":102.267,"EPHEMERIS_TYPE":0,"CLASSIFICATION_TYPE":"U","NORAD_CAT_ID":44850,"ELEMENT_SET_NO":999,"REV_AT_EPOCH":5090,"BSTAR":0,"MEAN_MOTION_DOT":-6.3e-7,"MEAN_MOTION_DDOT":0}},{"id":"45358","name":"COSMOS 2545 (760)","constellationId":"glo","omm":{"OBJECT_NAME":"COSMOS 2545 (760)","OBJECT_ID":"2020-018A","EPOCH":"2026-06-28T22:56:25.336320","MEAN_MOTION":2.13102693,"ECCENTRICITY":0.0008835,"INCLINATION":64.3473,"RA_OF_ASC_NODE":312.0049,"ARG_OF_PERICENTER":229.6158,"MEAN_ANOMALY":130.2998,"EPHEMERIS_TYPE":0,"CLASSIFICATION_TYPE":"U","NORAD_CAT_ID":45358,"ELEMENT_SET_NO":999,"REV_AT_EPOCH":4891,"BSTAR":0,"MEAN_MOTION_DOT":-7.1e-7,"MEAN_MOTION_DDOT":0}},{"id":"46805","name":"COSMOS 2547 (705K)","constellationId":"glo","omm":{"OBJECT_NAME":"COSMOS 2547 (705K)","OBJECT_ID":"2020-075A","EPOCH":"2026-06-27T06:26:33.349920","MEAN_MOTION":2.13100208,"ECCENTRICITY":0.00094051,"INCLINATION":64.6001,"RA_OF_ASC_NODE":192.139,"ARG_OF_PERICENTER":239.7377,"MEAN_ANOMALY":120.2212,"EPHEMERIS_TYPE":0,"CLASSIFICATION_TYPE":"U","NORAD_CAT_ID":46805,"ELEMENT_SET_NO":999,"REV_AT_EPOCH":4412,"BSTAR":0,"MEAN_MOTION_DOT":0.00000101,"MEAN_MOTION_DDOT":0}},{"id":"52984","name":"COSMOS 2557 (706K)","constellationId":"glo","omm":{"OBJECT_NAME":"COSMOS 2557 (706K)","OBJECT_ID":"2022-075A","EPOCH":"2026-06-27T10:23:01.392000","MEAN_MOTION":2.13102281,"ECCENTRICITY":0.00103244,"INCLINATION":64.2922,"RA_OF_ASC_NODE":314.1237,"ARG_OF_PERICENTER":273.3478,"MEAN_ANOMALY":86.5234,"EPHEMERIS_TYPE":0,"CLASSIFICATION_TYPE":"U","NORAD_CAT_ID":52984,"ELEMENT_SET_NO":999,"REV_AT_EPOCH":3093,"BSTAR":0,"MEAN_MOTION_DOT":-8.2e-7,"MEAN_MOTION_DDOT":0}},{"id":"54031","name":"COSMOS 2559 (707K)","constellationId":"glo","omm":{"OBJECT_NAME":"COSMOS 2559 (707K)","OBJECT_ID":"2022-130A","EPOCH":"2026-06-27T17:19:03.381888","MEAN_MOTION":2.13101825,"ECCENTRICITY":0.0012766,"INCLINATION":64.2645,"RA_OF_ASC_NODE":314.1973,"ARG_OF_PERICENTER":179.1655,"MEAN_ANOMALY":180.8266,"EPHEMERIS_TYPE":0,"CLASSIFICATION_TYPE":"U","NORAD_CAT_ID":54031,"ELEMENT_SET_NO":999,"REV_AT_EPOCH":2891,"BSTAR":0,"MEAN_MOTION_DOT":-8.1e-7,"MEAN_MOTION_DDOT":0}},{"id":"54377","name":"COSMOS 2564 (761)","constellationId":"glo","omm":{"OBJECT_NAME":"COSMOS 2564 (761)","OBJECT_ID":"2022-161A","EPOCH":"2026-06-27T13:33:19.590912","MEAN_MOTION":2.13102113,"ECCENTRICITY":0.00122573,"INCLINATION":64.7427,"RA_OF_ASC_NODE":192.3671,"ARG_OF_PERICENTER":225.0587,"MEAN_ANOMALY":134.8937,"EPHEMERIS_TYPE":0,"CLASSIFICATION_TYPE":"U","NORAD_CAT_ID":54377,"ELEMENT_SET_NO":999,"REV_AT_EPOCH":2785,"BSTAR":0,"MEAN_MOTION_DOT":9.9e-7,"MEAN_MOTION_DDOT":0}},{"id":"57517","name":"COSMOS 2569 (703K)","constellationId":"glo","omm":{"OBJECT_NAME":"COSMOS 2569 (703K)","OBJECT_ID":"2023-114A","EPOCH":"2026-06-28T12:22:31.033344","MEAN_MOTION":2.13103866,"ECCENTRICITY":0.00102622,"INCLINATION":65.3084,"RA_OF_ASC_NODE":72.2385,"ARG_OF_PERICENTER":296.5963,"MEAN_ANOMALY":63.3487,"EPHEMERIS_TYPE":0,"CLASSIFICATION_TYPE":"U","NORAD_CAT_ID":57517,"ELEMENT_SET_NO":999,"REV_AT_EPOCH":2250,"BSTAR":0,"MEAN_MOTION_DOT":-3.8e-7,"MEAN_MOTION_DDOT":0}},{"id":"63130","name":"COSMOS 2584 (704K)","constellationId":"glo","omm":{"OBJECT_NAME":"COSMOS 2584 (704K)","OBJECT_ID":"2025-042A","EPOCH":"2026-06-25T14:05:06.281664","MEAN_MOTION":2.13103987,"ECCENTRICITY":0.00062611,"INCLINATION":65.0897,"RA_OF_ASC_NODE":72.5163,"ARG_OF_PERICENTER":227.4073,"MEAN_ANOMALY":132.5759,"EPHEMERIS_TYPE":0,"CLASSIFICATION_TYPE":"U","NORAD_CAT_ID":63130,"ELEMENT_SET_NO":999,"REV_AT_EPOCH":1022,"BSTAR":0,"MEAN_MOTION_DOT":-6.6e-7,"MEAN_MOTION_DDOT":0}},{"id":"65590","name":"COSMOS 2596 (708K)","constellationId":"glo","omm":{"OBJECT_NAME":"COSMOS 2596 (708K)","OBJECT_ID":"2025-206B","EPOCH":"2026-06-27T20:03:44.455680","MEAN_MOTION":2.13101038,"ECCENTRICITY":0.00110618,"INCLINATION":64.6279,"RA_OF_ASC_NODE":314.6147,"ARG_OF_PERICENTER":310.36,"MEAN_ANOMALY":91.2409,"EPHEMERIS_TYPE":0,"CLASSIFICATION_TYPE":"U","NORAD_CAT_ID":65590,"ELEMENT_SET_NO":999,"REV_AT_EPOCH":614,"BSTAR":0,"MEAN_MOTION_DOT":-8e-7,"MEAN_MOTION_DDOT":0}}]}